start=new Date('2022-05-14T00:00:00.000Z').valueOf();
sats=[{"BSTAR":"-0.01239000000000","NORAD_CAT_ID":"51755","ECCENTRICITY":"0.00012130","PERIAPSIS":"416.022","OBJECT_NAME":"STARLINK-3460","OBJECT_ID":"2022-016AT","MEAN_MOTION":"15.49959711","SITE":"AFETR","PERIOD":"92.906","GP_ID":"203454719","MEAN_MOTION_DDOT":"0.0000000000000","COUNTRY_CODE":"US","OBJECT_TYPE":"PAYLOAD","ELEMENT_SET_NO":"999","REV_AT_EPOCH":"1404","CLASSIFICATION_TYPE":"U","DECAY_DATE":null,"RCS_SIZE":"LARGE","SEMIMAJOR_AXIS":"6794.981","INCLINATION":"53.2154","EPOCH":"2022-05-13T22:00:00.999936","MEAN_ANOMALY":"245.9389","CENTER_NAME":"EARTH","MEAN_MOTION_DOT":"-0.00649830","TLE_LINE2":"2 51755  53.2154  98.9763 0001213  70.6151 245.9389 15.49959711 14044","MEAN_ELEMENT_THEORY":"SGP4","RA_OF_ASC_NODE":"98.9763","REF_FRAME":"TEME","LAUNCH_DATE":"2022-02-21","TIME_SYSTEM":"UTC","FILE":"3444298","EPHEMERIS_TYPE":"0","TLE_LINE1":"1 51755U 22016AT  22133.91667824 -.00649830  00000-0 -12390-1 0  9996","ARG_OF_PERICENTER":"70.6151","APOAPSIS":"417.670"},{"MEAN_ANOMALY":"257.3940","EPOCH":"2022-05-13T22:00:00.999936","INCLINATION":"53.2160","SEMIMAJOR_AXIS":"6795.210","RCS_SIZE":"LARGE","DECAY_DATE":null,"CLASSIFICATION_TYPE":"U","OBJECT_TYPE":"PAYLOAD","ELEMENT_SET_NO":"999","REV_AT_EPOCH":"1399","MEAN_MOTION_DDOT":"0.0000000000000","COUNTRY_CODE":"US","PERIOD":"92.910","GP_ID":"203454701","SITE":"AFETR","MEAN_MOTION":"15.49881280","OBJECT_NAME":"STARLINK-3513","OBJECT_ID":"2022-016AU","PERIAPSIS":"416.154","NORAD_CAT_ID":"51756","ECCENTRICITY":"0.00013550","BSTAR":"0.00054562000000","APOAPSIS":"417.996","EPHEMERIS_TYPE":"0","TLE_LINE1":"1 51756U 22016AU  22133.91667824  .00030632  00000-0  54562-3 0  9998","ARG_OF_PERICENTER":"60.8368","FILE":"3444296","LAUNCH_DATE":"2022-02-21","TIME_SYSTEM":"UTC","REF_FRAME":"TEME","RA_OF_ASC_NODE":"99.0753","MEAN_ELEMENT_THEORY":"SGP4","TLE_LINE2":"2 51756  53.2160  99.0753 0001355  60.8368 257.3940 15.49881280 13999","CENTER_NAME":"EARTH","MEAN_MOTION_DOT":"0.00030632"},{"SEMIMAJOR_AXIS":"6795.199","INCLINATION":"53.2157","EPOCH":"2022-05-13T22:00:00.999936","MEAN_ANOMALY":"260.0252","RCS_SIZE":"LARGE","OBJECT_TYPE":"PAYLOAD","REV_AT_EPOCH":"1404","ELEMENT_SET_NO":"999","CLASSIFICATION_TYPE":"U","DECAY_DATE":null,"SITE":"AFETR","PERIOD":"92.910","GP_ID":"203454729","COUNTRY_CODE":"US","MEAN_MOTION_DDOT":"0.0000000000000","OBJECT_ID":"2022-016AV","OBJECT_NAME":"STARLINK-3459","MEAN_MOTION":"15.49885000","PERIAPSIS":"416.195","ECCENTRICITY":"0.00012790","NORAD_CAT_ID":"51757","BSTAR":"0.00055252000000","APOAPSIS":"417.933","FILE":"3444298","TLE_LINE1":"1 51757U 22016AV  22133.91667824  .00031031  00000-0  55252-3 0  9990","ARG_OF_PERICENTER":"59.0954","EPHEMERIS_TYPE":"0","REF_FRAME":"TEME","LAUNCH_DATE":"2022-02-21","TIME_SYSTEM":"UTC","RA_OF_ASC_NODE":"99.0874","MEAN_ELEMENT_THEORY":"SGP4","TLE_LINE2":"2 51757  53.2157  99.0874 0001279  59.0954 260.0252 15.49885000 14044","CENTER_NAME":"EARTH","MEAN_MOTION_DOT":"0.00031031"},{"PERIAPSIS":"415.941","OBJECT_ID":"2022-016AW","OBJECT_NAME":"STARLINK-3458","MEAN_MOTION":"15.49950159","BSTAR":"-0.00123670000000","ECCENTRICITY":"0.00013730","NORAD_CAT_ID":"51758","RCS_SIZE":"LARGE","SEMIMAJOR_AXIS":"6795.009","INCLINATION":"53.2160","EPOCH":"2022-05-13T22:00:00.999936","MEAN_ANOMALY":"266.2747","SITE":"AFETR","PERIOD":"92.906","GP_ID":"203480991","COUNTRY_CODE":"US","MEAN_MOTION_DDOT":"0.0000000000000","ELEMENT_SET_NO":"999","OBJECT_TYPE":"PAYLOAD","REV_AT_EPOCH":"130","CLASSIFICATION_TYPE":"U","DECAY_DATE":null,"MEAN_ELEMENT_THEORY":"SGP4","CENTER_NAME":"EARTH","MEAN_MOTION_DOT":"-0.00070176","TLE_LINE2":"2 51758  53.2160  99.0962 0001373  53.6304 266.2747 15.49950159  1301","FILE":"3444395","TLE_LINE1":"1 51758U 22016AW  22133.91667824 -.00070176  00000-0 -12367-2 0  9995","EPHEMERIS_TYPE":"0","ARG_OF_PERICENTER":"53.6304","APOAPSIS":"417.807","RA_OF_ASC_NODE":"99.0962","REF_FRAME":"TEME","TIME_SYSTEM":"UTC","LAUNCH_DATE":"2022-02-21"},{"APOAPSIS":"418.189","EPHEMERIS_TYPE":"0","TLE_LINE1":"1 51759U 22016AX  22133.91667824  .00174638  00000-0  30341-2 0  9994","ARG_OF_PERICENTER":"69.2517","FILE":"3444395","REF_FRAME":"TEME","LAUNCH_DATE":"2022-02-21","TIME_SYSTEM":"UTC","RA_OF_ASC_NODE":"99.0985","MEAN_ELEMENT_THEORY":"SGP4","TLE_LINE2":"2 51759  53.2158  99.0985 0000954  69.2517 251.4705 15.49722138  1301","CENTER_NAME":"EARTH","MEAN_MOTION_DOT":"0.00174638","EPOCH":"2022-05-13T22:00:00.999936","MEAN_ANOMALY":"251.4705","SEMIMAJOR_AXIS":"6795.675","INCLINATION":"53.2158","RCS_SIZE":"LARGE","CLASSIFICATION_TYPE":"U","DECAY_DATE":null,"OBJECT_TYPE":"PAYLOAD","REV_AT_EPOCH":"130","ELEMENT_SET_NO":"999","COUNTRY_CODE":"US","MEAN_MOTION_DDOT":"0.0000000000000","SITE":"AFETR","GP_ID":"203481276","PERIOD":"92.920","MEAN_MOTION":"15.49722138","OBJECT_NAME":"STARLINK-3456","OBJECT_ID":"2022-016AX","PERIAPSIS":"416.892","ECCENTRICITY":"0.00009540","NORAD_CAT_ID":"51759","BSTAR":"0.00303410000000"},{"NORAD_CAT_ID":"51768","ECCENTRICITY":"0.00016550","BSTAR":"-0.02820700000000","MEAN_MOTION":"15.27903819","OBJECT_ID":"2022-017A","OBJECT_NAME":"STARLINK-3622","PERIAPSIS":"480.946","DECAY_DATE":null,"CLASSIFICATION_TYPE":"U","OBJECT_TYPE":"PAYLOAD","REV_AT_EPOCH":"130","ELEMENT_SET_NO":"999","MEAN_MOTION_DDOT":"0.0000000000000","COUNTRY_CODE":"US","GP_ID":"203480741","PERIOD":"94.247","SITE":"AFWTR","MEAN_ANOMALY":"104.8859","EPOCH":"2022-05-13T22:00:00.999936","INCLINATION":"53.2174","SEMIMAJOR_AXIS":"6860.217","RCS_SIZE":"LARGE","TLE_LINE2":"2 51768  53.2174 125.9112 0001655  46.5000 104.8859 15.27903819  1308","MEAN_MOTION_DOT":"-0.00726302","CENTER_NAME":"EARTH","MEAN_ELEMENT_THEORY":"SGP4","TIME_SYSTEM":"UTC","LAUNCH_DATE":"2022-02-25","REF_FRAME":"TEME","RA_OF_ASC_NODE":"125.9112","APOAPSIS":"483.217","EPHEMERIS_TYPE":"0","TLE_LINE1":"1 51768U 22017A   22133.91667824 -.00726302  00000-0 -28207-1 0  9995","ARG_OF_PERICENTER":"46.5000","FILE":"3444395"},{"OBJECT_NAME":"STARLINK-3621","OBJECT_ID":"2022-017B","MEAN_MOTION":"15.28299943","PERIAPSIS":"479.828","ECCENTRICITY":"0.00015580","NORAD_CAT_ID":"51769","BSTAR":"-0.02788300000000","SEMIMAJOR_AXIS":"6859.031","INCLINATION":"53.2173","EPOCH":"2022-05-13T22:00:00.999936","MEAN_ANOMALY":"119.4772","RCS_SIZE":"LARGE","OBJECT_TYPE":"PAYLOAD","REV_AT_EPOCH":"130","ELEMENT_SET_NO":"999","CLASSIFICATION_TYPE":"U","DECAY_DATE":null,"SITE":"AFWTR","GP_ID":"203480837","PERIOD":"94.222","MEAN_MOTION_DDOT":"0.0000000000000","COUNTRY_CODE":"US","MEAN_ELEMENT_THEORY":"SGP4","TLE_LINE2":"2 51769  53.2173 125.9251 0001558  53.9553 119.4772 15.28299943  1302","CENTER_NAME":"EARTH","MEAN_MOTION_DOT":"-0.00726708","APOAPSIS":"481.965","FILE":"3444395","EPHEMERIS_TYPE":"0","TLE_LINE1":"1 51769U 22017B   22133.91667824 -.00726708  00000-0 -27883-1 0  9995","ARG_OF_PERICENTER":"53.9553","REF_FRAME":"TEME","LAUNCH_DATE":"2022-02-25","TIME_SYSTEM":"UTC","RA_OF_ASC_NODE":"125.9251"},{"CENTER_NAME":"EARTH","MEAN_MOTION_DOT":"-0.00726427","TLE_LINE2":"2 51770  53.2173 125.9182 0001694  46.4117 116.0436 15.28101858  1308","MEAN_ELEMENT_THEORY":"SGP4","RA_OF_ASC_NODE":"125.9182","REF_FRAME":"TEME","LAUNCH_DATE":"2022-02-25","TIME_SYSTEM":"UTC","FILE":"3444395","EPHEMERIS_TYPE":"0","TLE_LINE1":"1 51770U 22017C   22133.91667824 -.00726427  00000-0 -28041-1 0  9992","ARG_OF_PERICENTER":"46.4117","APOAPSIS":"482.651","BSTAR":"-0.02804100000000","ECCENTRICITY":"0.00016940","NORAD_CAT_ID":"51770","PERIAPSIS":"480.327","OBJECT_ID":"2022-017C","OBJECT_NAME":"STARLINK-3612","MEAN_MOTION":"15.28101858","SITE":"AFWTR","GP_ID":"203480647","PERIOD":"94.235","COUNTRY_CODE":"US","MEAN_MOTION_DDOT":"0.0000000000000","ELEMENT_SET_NO":"999","OBJECT_TYPE":"PAYLOAD","REV_AT_EPOCH":"130","CLASSIFICATION_TYPE":"U","DECAY_DATE":null,"RCS_SIZE":"LARGE","SEMIMAJOR_AXIS":"6859.624","INCLINATION":"53.2173","EPOCH":"2022-05-13T22:00:00.999936","MEAN_ANOMALY":"116.0436"},{"MEAN_MOTION_DOT":"-0.00726879","CENTER_NAME":"EARTH","TLE_LINE2":"2 51771  53.2173 125.9300 0001666  48.1003 133.5041 15.28444167  1302","MEAN_ELEMENT_THEORY":"SGP4","RA_OF_ASC_NODE":"125.9300","LAUNCH_DATE":"2022-02-25","TIME_SYSTEM":"UTC","REF_FRAME":"TEME","FILE":"3444395","TLE_LINE1":"1 51771U 22017D   22133.91667824 -.00726879  00000-0 -27766-1 0  9997","EPHEMERIS_TYPE":"0","ARG_OF_PERICENTER":"48.1003","APOAPSIS":"481.607","BSTAR":"-0.02776600000000","ECCENTRICITY":"0.00016660","NORAD_CAT_ID":"51771","PERIAPSIS":"479.322","OBJECT_ID":"2022-017D","OBJECT_NAME":"STARLINK-3614","MEAN_MOTION":"15.28444167","GP_ID":"203480932","PERIOD":"94.213","SITE":"AFWTR","MEAN_MOTION_DDOT":"0.0000000000000","COUNTRY_CODE":"US","OBJECT_TYPE":"PAYLOAD","ELEMENT_SET_NO":"999","REV_AT_EPOCH":"130","DECAY_DATE":null,"CLASSIFICATION_TYPE":"U","RCS_SIZE":"LARGE","INCLINATION":"53.2173","SEMIMAJOR_AXIS":"6858.600","MEAN_ANOMALY":"133.5041","EPOCH":"2022-05-13T22:00:00.999936"},{"CENTER_NAME":"EARTH","MEAN_MOTION_DOT":"-0.00726758","TLE_LINE2":"2 51772  53.2173 125.9446 0001576  53.8244 152.4118 15.28884803 13374","MEAN_ELEMENT_THEORY":"SGP4","RA_OF_ASC_NODE":"125.9446","REF_FRAME":"TEME","TIME_SYSTEM":"UTC","LAUNCH_DATE":"2022-02-25","FILE":"3444309","ARG_OF_PERICENTER":"53.8244","TLE_LINE1":"1 51772U 22017E   22133.91667824 -.00726758  00000-0 -27387-1 0  9993","EPHEMERIS_TYPE":"0","APOAPSIS":"480.228","BSTAR":"-0.02738700000000","ECCENTRICITY":"0.00015760","NORAD_CAT_ID":"51772","PERIAPSIS":"478.066","OBJECT_NAME":"STARLINK-3623","OBJECT_ID":"2022-017E","MEAN_MOTION":"15.28884803","SITE":"AFWTR","GP_ID":"203454896","PERIOD":"94.186","COUNTRY_CODE":"US","MEAN_MOTION_DDOT":"0.0000000000000","OBJECT_TYPE":"PAYLOAD","REV_AT_EPOCH":"1337","ELEMENT_SET_NO":"999","CLASSIFICATION_TYPE":"U","DECAY_DATE":null,"RCS_SIZE":"LARGE","SEMIMAJOR_AXIS":"6857.282","INCLINATION":"53.2173","EPOCH":"2022-05-13T22:00:00.999936","MEAN_ANOMALY":"152.4118"}];
